[{"OBJECT_NAME":"STARLINK-1771","OBJECT_ID":"2020-062BM","EPOCH":"2026-03-09T23:29:32.152704","MEAN_MOTION":15.46599985,"ECCENTRICITY":0.00025443,"INCLINATION":53.043,"RA_OF_ASC_NODE":344.5786,"ARG_OF_PERICENTER":249.4105,"MEAN_ANOMALY":110.6628,"EPHEMERIS_TYPE":0,"CLASSIFICATION_TYPE":"U","NORAD_CAT_ID":46384,"ELEMENT_SET_NO":999,"REV_AT_EPOCH":30478,"BSTAR":0.0015540489,"MEAN_MOTION_DOT":0.00079024,"MEAN_MOTION_DDOT":0},{"OBJECT_NAME":"TIANMU-1 04","OBJECT_ID":"2023-039B","EPOCH":"2026-03-09T21:40:01.610688","MEAN_MOTION":15.44618155,"ECCENTRICITY":0.00046689,"INCLINATION":97.5114,"RA_OF_ASC_NODE":238.3884,"ARG_OF_PERICENTER":96.2313,"MEAN_ANOMALY":263.9468,"EPHEMERIS_TYPE":0,"CLASSIFICATION_TYPE":"U","NORAD_CAT_ID":55974,"ELEMENT_SET_NO":999,"REV_AT_EPOCH":16550,"BSTAR":0.00043487013,"MEAN_MOTION_DOT":0.0002018,"MEAN_MOTION_DDOT":0}]
